{"fetched_at":"2026-06-15T10:34:40Z","count":3953,"tles":[{"name":"CSS (TIANHE)","line1":"1 48274U 21035A   26166.12139454  .00019018  00000+0  22553-3 0  9994","line2":"2 48274  41.4695 334.5729 0007575  60.5099 299.6495 15.60729034292848","category":"Other"},{"name":"XRISM","line1":"1 57800U 23137A   26165.94681589  .00004701  00000+0  25816-3 0  9992","line2":"2 57800  31.0032  14.1135 0007968 301.5988  58.3873 15.12448733152527","category":"Other"},{"name":"COSMOS 2428","line1":"1 31792U 07029A   26165.94901284 -.00000123  00000+0 -40507-4 0  9994","line2":"2 31792  70.9370 359.1772 0007147 139.2504 220.9153 14.12928495977838","category":"Other"},{"name":"COSMO-SKYMED 1","line1":"1 31598U 07023A   26166.19672546  .00002148  00000+0  19148-3 0  9999","line2":"2 31598  97.8839 358.0359 0001155  98.4294 261.7059 14.97090189 29495","category":"Other"},{"name":"SHIJIAN-16 (SJ-16)","line1":"1 39358U 13057A   26166.09452257  .00000917  00000+0  91749-4 0  9999","line2":"2 39358  74.9727   0.6474 0016831 235.6871 124.2725 14.92602682686034","category":"Other"},{"name":"KORONAS-FOTON","line1":"1 33504U 09003A   26166.07162397  .00009478  00000+0  19516-3 0  9995","line2":"2 33504  82.4280 174.4662 0011475 154.3805 205.8014 15.45687925960776","category":"Other"},{"name":"CZ-2C R/B","line1":"1 52794U 22058K   26165.74687050  .00033243  00000+0  37205-3 0  9995","line2":"2 52794  50.1832 176.2150 0032577 257.8533 101.8791 15.61696583225261","category":"Other"},{"name":"COSMOS 2550","line1":"1 48865U 21056A   26166.13306127  .00004600  00000+0  14552-3 0  9998","line2":"2 48865  67.1431 106.1192 0008413 268.1559  91.8632 15.33834662278408","category":"Other"},{"name":"H-2A R/B","line1":"1 38341U 12025E   26165.94929078  .00003262  00000+0  29370-3 0  9993","line2":"2 38341  98.4826 140.9104 0043783 356.7043   3.3881 14.95708869762757","category":"Other"},{"name":"YAOGAN-29","line1":"1 41038U 15069A   26166.15376948 -.00000003  00000+0  62690-5 0  9992","line2":"2 41038  98.0027 194.7832 0002670  57.5645 302.5826 14.83082121570328","category":"Other"},{"name":"H-2A R/B","line1":"1 43682U 18084L   26166.18543301  .00015561  00000+0  32788-3 0  9998","line2":"2 43682  98.8583  44.6385 0023660  47.3393 312.9839 15.45088241420810","category":"Other"},{"name":"SL-16 R/B","line1":"1 31793U 07029B   26166.22242520  .00000182  00000+0  11889-3 0  9991","line2":"2 31793  70.9768 327.3585 0002286 261.5112 270.9118 14.14854346979161","category":"Other"},{"name":"SL-4 R/B","line1":"1 39679U 14021B   26165.86028212  .00008849  00000+0  18540-3 0  9990","line2":"2 39679  51.6041 222.1715 0091366  97.4844 263.6533 15.41913470671258","category":"Other"},{"name":"ACS3","line1":"1 59588U 24077B   26165.62138823  .00007840  00000+0  58459-2 0  9999","line2":"2 59588  97.1678  84.9820 0068989  65.3065 295.5264 13.93844822107680","category":"Other"},{"name":"SAOCOM 1B","line1":"1 46265U 20059A   26166.14189574  .00000631  00000+0  85745-4 0  9991","line2":"2 46265  97.8879 352.0152 0001298  82.6760 277.4601 14.82208786313189","category":"Other"},{"name":"ALOS-2","line1":"1 39766U 14029A   26166.24544609  .00001574  00000+0  21759-3 0  9995","line2":"2 39766  97.9222 263.4363 0001672  93.1225 267.0178 14.79467123651297","category":"Other"},{"name":"HXMT (HUIYAN)","line1":"1 42758U 17034A   26166.22676890  .00002675  00000+0  13761-3 0  9992","line2":"2 42758  43.0126 193.9574 0030400 134.3223 226.0125 15.18467526497369","category":"Other"},{"name":"SAOCOM 1A","line1":"1 43641U 18076A   26166.17822159  .00000025  00000+0  96599-5 0  9995","line2":"2 43641  97.8877 352.9562 0001588  78.1633 281.9758 14.82146509415806","category":"Other"}]}