OBJECT_NAME,OBJECT_ID,EPOCH,MEAN_MOTION,ECCENTRICITY,INCLINATION,RA_OF_ASC_NODE,ARG_OF_PERICENTER,MEAN_ANOMALY,EPHEMERIS_TYPE,CLASSIFICATION_TYPE,NORAD_CAT_ID,ELEMENT_SET_NO,REV_AT_EPOCH,BSTAR,MEAN_MOTION_DOT,MEAN_MOTION_DDOT
COSMO-SKYMED 1,2007-023A,2026-06-15T04:43:17.079744,14.97090189,.0001155,97.8839,358.0359,98.4294,261.7059,0,U,31598,999,2949,.19148E-3,.2148E-4,0
COSMOS 2428,2007-029A,2026-06-14T22:46:34.709376,14.12928495,.0007147,70.9370,359.1772,139.2504,220.9153,0,U,31792,999,97783,-.40507E-4,-.123E-5,0
SL-16 R/B,2007-029B,2026-06-15T05:20:17.537280,14.14854346,.0002286,70.9768,327.3585,261.5112,270.9118,0,U,31793,999,97916,.11889E-3,.182E-5,0
KORONAS-FOTON,2009-003A,2026-06-15T01:43:08.311008,15.45687925,.0011475,82.4280,174.4662,154.3805,205.8014,0,U,33504,999,96077,.19516E-3,.9478E-4,0
H-2A R/B,2012-025E,2026-06-14T22:46:58.723392,14.95708869,.0043783,98.4826,140.9104,356.7043,3.3881,0,U,38341,999,76275,.2937E-3,.3262E-4,0
SHIJIAN-16 (SJ-16),2013-057A,2026-06-15T02:16:06.750048,14.92602682,.0016831,74.9727,0.6474,235.6871,124.2725,0,U,39358,999,68603,.91749E-4,.917E-5,0
SL-4 R/B,2014-021B,2026-06-14T20:38:48.375168,15.41913470,.00913667,51.6041,222.1715,97.4844,263.6533,0,U,39679,999,67125,.18540026E-3,.8849E-4,0
ALOS-2,2014-029A,2026-06-15T05:53:26.542176,14.79467123,.0001672,97.9222,263.4363,93.1225,267.0178,0,U,39766,999,65129,.21759E-3,.1574E-4,0
YAOGAN-29,2015-069A,2026-06-15T03:41:25.683072,14.83082121,.000267,98.0027,194.7832,57.5645,302.5826,0,U,41038,999,57032,.6269E-5,-.3E-7,0
HXMT (HUIYAN),2017-034A,2026-06-15T05:26:32.832960,15.18467526,.00304,43.0126,193.9574,134.3223,226.0125,0,U,42758,999,49736,.13761E-3,.2675E-4,0
SAOCOM 1A,2018-076A,2026-06-15T04:16:38.345376,14.82146509,.0001588,97.8877,352.9562,78.1633,281.9758,0,U,43641,999,41580,.96599E-5,.25E-6,0
H-2A R/B,2018-084L,2026-06-15T04:27:01.412064,15.45088241,.002366,98.8583,44.6385,47.3393,312.9839,0,U,43682,999,42081,.32788E-3,.15561E-3,0
SAOCOM 1B,2020-059A,2026-06-15T03:24:19.791936,14.82208786,.0001298,97.8879,352.0152,82.6760,277.4601,0,U,46265,999,31318,.85745E-4,.631E-5,0
CSS (TIANHE),2021-035A,2026-06-15T02:54:48.488256,15.60729034,.0007575,41.4695,334.5729,60.5099,299.6495,0,U,48274,999,29284,.22553E-3,.19018E-3,0
COSMOS 2550,2021-056A,2026-06-15T03:11:36.493728,15.33834662,.0008413,67.1431,106.1192,268.1559,91.8632,0,U,48865,999,27840,.14552E-3,.46E-4,0
CZ-2C R/B,2022-058K,2026-06-14T17:55:29.611200,15.61696583,.00325778,50.1832,176.2150,257.8533,101.8791,0,U,52794,999,22526,.37204522E-3,.33243E-3,0
XRISM,2023-137A,2026-06-14T22:43:24.892896,15.12448733,.0007968,31.0032,14.1135,301.5988,58.3873,0,U,57800,999,15252,.25816E-3,.4701E-4,0
ACS3,2024-077B,2026-06-14T14:54:47.943072,13.93844822,.00689894,97.1678,84.9820,65.3065,295.5264,0,U,59588,999,10768,.58459193E-2,.784E-4,0
